{
  "links" : {
    "next" : "https://api.nasa.gov/neo/rest/v1/feed?start_date=2015-04-09&end_date=2015-04-09&detailed=true&api_key=t0TVs3DtDT2H8Oy2Zy8m2eVrNsAVKAexjcZXUckd",
    "prev" : "https://api.nasa.gov/neo/rest/v1/feed?start_date=2015-04-07&end_date=2015-04-07&detailed=true&api_key=t0TVs3DtDT2H8Oy2Zy8m2eVrNsAVKAexjcZXUckd",
    "self" : "https://api.nasa.gov/neo/rest/v1/feed?start_date=2015-04-08&end_date=2015-04-08&detailed=true&api_key=t0TVs3DtDT2H8Oy2Zy8m2eVrNsAVKAexjcZXUckd"
  },
  "element_count" : 8,
  "near_earth_objects" : {
    "2015-04-08" : [ {
      "links" : {
        "self" : "https://api.nasa.gov/neo/rest/v1/neo/3751828?api_key=t0TVs3DtDT2H8Oy2Zy8m2eVrNsAVKAexjcZXUckd"
      },
      "neo_reference_id" : "3751828",
      "name" : "(2016 GC221)",
      "nasa_jpl_url" : "http://ssd.jpl.nasa.gov/sbdb.cgi?sstr=3751828",
      "absolute_magnitude_h" : 24.8,
      "estimated_diameter" : {
        "kilometers" : {
          "estimated_diameter_min" : 0.0291443905,
          "estimated_diameter_max" : 0.0651688382
        },
        "meters" : {
          "estimated_diameter_min" : 29.1443904535,
          "estimated_diameter_max" : 65.1688382168
        },
        "miles" : {
          "estimated_diameter_min" : 0.018109479,
          "estimated_diameter_max" : 0.0404940262
        },
        "feet" : {
          "estimated_diameter_min" : 95.6180819754,
          "estimated_diameter_max" : 213.8085311752
        }
      },
      "is_potentially_hazardous_asteroid" : false,
      "close_approach_data" : [ {
        "close_approach_date" : "2015-04-08",
        "epoch_date_close_approach" : 1428476400000,
        "relative_velocity" : {
          "kilometers_per_second" : "18.2885059827",
          "kilometers_per_hour" : "65838.6215378694",
          "miles_per_hour" : "40909.5590327945"
        },
        "miss_distance" : {
          "astronomical" : "0.2573362053",
          "lunar" : "100.1037826538",
          "kilometers" : "38496948",
          "miles" : "23920894"
        },
        "orbiting_body" : "Earth"
      } ],
      "orbital_data" : {
        "orbit_id" : "6",
        "orbit_determination_date" : "2017-04-06 08:26:31",
        "orbit_uncertainty" : "7",
        "minimum_orbit_intersection" : ".0187724",
        "jupiter_tisserand_invariant" : "5.841",
        "epoch_osculation" : "2458000.5",
        "eccentricity" : ".1641587381274776",
        "semi_major_axis" : "1.030904143921042",
        "inclination" : "25.28470094520837",
        "ascending_node_longitude" : "23.53951819960083",
        "orbital_period" : "382.3189765333383",
        "perihelion_distance" : ".8616722205245759",
        "perihelion_argument" : "279.7183444305167",
        "aphelion_distance" : "1.200136067317508",
        "perihelion_time" : "2457961.054110791731",
        "mean_anomaly" : "37.1431212851096",
        "mean_motion" : ".9416221063999628",
        "equinox" : "J2000"
      }
    }, {
      "links" : {
        "self" : "https://api.nasa.gov/neo/rest/v1/neo/3341510?api_key=t0TVs3DtDT2H8Oy2Zy8m2eVrNsAVKAexjcZXUckd"
      },
      "neo_reference_id" : "3341510",
      "name" : "(2006 RH2)",
      "nasa_jpl_url" : "http://ssd.jpl.nasa.gov/sbdb.cgi?sstr=3341510",
      "absolute_magnitude_h" : 27.2,
      "estimated_diameter" : {
        "kilometers" : {
          "estimated_diameter_min" : 0.0096506147,
          "estimated_diameter_max" : 0.0215794305
        },
        "meters" : {
          "estimated_diameter_min" : 9.6506146958,
          "estimated_diameter_max" : 21.5794304844
        },
        "miles" : {
          "estimated_diameter_min" : 0.0059966121,
          "estimated_diameter_max" : 0.0134088323
        },
        "feet" : {
          "estimated_diameter_min" : 31.6621227185,
          "estimated_diameter_max" : 70.7986587106
        }
      },
      "is_potentially_hazardous_asteroid" : false,
      "close_approach_data" : [ {
        "close_approach_date" : "2015-04-08",
        "epoch_date_close_approach" : 1428476400000,
        "relative_velocity" : {
          "kilometers_per_second" : "6.3629908903",
          "kilometers_per_hour" : "22906.7672050221",
          "miles_per_hour" : "14233.3743224761"
        },
        "miss_distance" : {
          "astronomical" : "0.2128956018",
          "lunar" : "82.8163909912",
          "kilometers" : "31848730",
          "miles" : "19789882"
        },
        "orbiting_body" : "Earth"
      } ],
      "orbital_data" : {
        "orbit_id" : "6",
        "orbit_determination_date" : "2017-04-06 09:08:10",
        "orbit_uncertainty" : "6",
        "minimum_orbit_intersection" : ".0123872",
        "jupiter_tisserand_invariant" : "5.680",
        "epoch_osculation" : "2458000.5",
        "eccentricity" : ".08184127572028023",
        "semi_major_axis" : "1.086597712102446",
        "inclination" : "11.78246494496256",
        "ascending_node_longitude" : "172.2579380688138",
        "orbital_period" : "413.7153228788396",
        "perihelion_distance" : ".9976691691492442",
        "perihelion_argument" : "222.7731534629403",
        "aphelion_distance" : "1.175526255055648",
        "perihelion_time" : "2458172.833575403820",
        "mean_anomaly" : "210.0416017621267",
        "mean_motion" : ".8701635643923911",
        "equinox" : "J2000"
      }
    } ]
  }
}